AMC-3                   
1 24936U 97050A   26062.00171671 -.00000274  00000+0  00000+0 0  9996
2 24936   7.8863  65.2894 0003449 283.7763 100.3151  1.00272075 51379
NSS-11                  
1 26554U 00059A   26062.12189343  .00000010  00000+0  00000+0 0  9992
2 26554   1.8527  82.6883 0003163 262.4144  35.6562  1.00271535 40227
AMC-6                   
1 26580U 00067A   26062.15392248  .00000073  00000+0  00000+0 0  9992
2 26580   0.0510 312.3900 0003149  26.0566 102.8133  1.00271314 92827
AMC-11                  
1 28252U 04017A   26062.15947694 -.00000065  00000+0  00000+0 0  9992
2 28252   0.0381  78.9391 0003225 267.2816 121.0014  1.00271883 79807
AMC-15                  
1 28446U 04041A   26062.15392248 -.00000104  00000+0  00000+0 0  9997
2 28446   0.0574 294.0067 0002435  54.9452 122.3272  1.00272685 78244
NSS-10                  
1 28526U 05003A   26062.06534172 -.00000265  00000+0  00000+0 0  9997
2 28526   6.1843  71.7369 0003264 273.4397 161.7221  1.00271521 52095
ASTRA 1KR               
1 29055U 06012A   26062.05253104  .00000103  00000+0  00000+0 0  9998
2 29055   0.2002  81.7856 0003462 242.3971 234.5382  1.00271529 44636
ASTRA 1L                
1 31306U 07016A   26062.12333672 -.00000199  00000+0  00000+0 0  9998
2 31306   1.0475  82.4316 0003308 272.2669 186.1361  1.00271355 43922
ASTRA 4A                
1 32299U 07057A   26062.15959362  .00000017  00000+0  00000+0 0  9996
2 32299   0.0555 291.0983 0002467  53.0063 239.0754  1.00273258 50586
ASTRA 1M                
1 33436U 08057A   26062.05253104  .00000104  00000+0  00000+0 0  9998
2 33436   0.0320  58.5261 0000633  12.7946 127.5897  1.00273218 44678
NSS-9                   
1 33749U 09008A   26062.03030856  .00000056  00000+0  00000+0 0  9993
2 33749   0.9872  83.7173 0002192 250.1800  20.8642  1.00272427 62457
SES-7 (PROTOSTAR 2)     
1 34941U 09027A   26061.96609653  .00000000  00000+0  00000+0 0  9996
2 34941   0.0235 126.4490 0001539 180.5422 309.8229  1.00269046 61568
NSS-12                  
1 36032U 09058A   26062.10530860  .00000056  00000+0  00000+0 0  9994
2 36032   0.0082 279.4528 0005059  46.9426 289.3690  1.00271953 59855
SES-1                   
1 36516U 10016A   26062.15392248 -.00000130  00000+0  00000+0 0  9992
2 36516   0.0552 291.0000 0002579  40.9602 143.3604  1.00272384 57977
ASTRA 3B                
1 36581U 10021A   26062.09199326  .00000122  00000+0  00000+0 0  9995
2 36581   1.1939  84.9540 0003036 277.9441 214.5680  1.00271092 57802
SES-3                   
1 37748U 11035A   26062.15392248 -.00000117  00000+0  00000+0 0  9997
2 37748   1.0526  84.3210 0003578 261.0698 127.9260  1.00272138 53535
ASTRA 1N                
1 37775U 11041A   26061.74937667  .00000103  00000+0  00000+0 0  9992
2 37775   0.0673  16.6824 0004062   0.7096  72.0856  1.00273017 43464
