[{"OBJECT_NAME":"AMC-3","OBJECT_ID":"1997-050A","EPOCH":"2026-03-03T00:02:28.323744","MEAN_MOTION":1.00272075,"ECCENTRICITY":0.0003449,"INCLINATION":7.8863,"RA_OF_ASC_NODE":65.2894,"ARG_OF_PERICENTER":283.7763,"MEAN_ANOMALY":100.3151,"EPHEMERIS_TYPE":0,"CLASSIFICATION_TYPE":"U","NORAD_CAT_ID":24936,"ELEMENT_SET_NO":999,"REV_AT_EPOCH":5137,"BSTAR":0,"MEAN_MOTION_DOT":-2.74e-6,"MEAN_MOTION_DDOT":0},{"OBJECT_NAME":"NSS-11","OBJECT_ID":"2000-059A","EPOCH":"2026-03-03T02:55:31.592352","MEAN_MOTION":1.00271535,"ECCENTRICITY":0.0003163,"INCLINATION":1.8527,"RA_OF_ASC_NODE":82.6883,"ARG_OF_PERICENTER":262.4144,"MEAN_ANOMALY":35.6562,"EPHEMERIS_TYPE":0,"CLASSIFICATION_TYPE":"U","NORAD_CAT_ID":26554,"ELEMENT_SET_NO":999,"REV_AT_EPOCH":4022,"BSTAR":0,"MEAN_MOTION_DOT":1.0e-7,"MEAN_MOTION_DDOT":0},{"OBJECT_NAME":"AMC-6","OBJECT_ID":"2000-067A","EPOCH":"2026-03-03T03:41:38.902272","MEAN_MOTION":1.00271314,"ECCENTRICITY":0.0003149,"INCLINATION":0.051,"RA_OF_ASC_NODE":312.39,"ARG_OF_PERICENTER":26.0566,"MEAN_ANOMALY":102.8133,"EPHEMERIS_TYPE":0,"CLASSIFICATION_TYPE":"U","NORAD_CAT_ID":26580,"ELEMENT_SET_NO":999,"REV_AT_EPOCH":9282,"BSTAR":0,"MEAN_MOTION_DOT":7.3e-7,"MEAN_MOTION_DDOT":0},{"OBJECT_NAME":"AMC-11","OBJECT_ID":"2004-017A","EPOCH":"2026-03-03T03:49:38.807616","MEAN_MOTION":1.00271883,"ECCENTRICITY":0.0003225,"INCLINATION":0.0381,"RA_OF_ASC_NODE":78.9391,"ARG_OF_PERICENTER":267.2816,"MEAN_ANOMALY":121.0014,"EPHEMERIS_TYPE":0,"CLASSIFICATION_TYPE":"U","NORAD_CAT_ID":28252,"ELEMENT_SET_NO":999,"REV_AT_EPOCH":7980,"BSTAR":0,"MEAN_MOTION_DOT":-6.5e-7,"MEAN_MOTION_DDOT":0},{"OBJECT_NAME":"AMC-15","OBJECT_ID":"2004-041A","EPOCH":"2026-03-03T03:41:38.902272","MEAN_MOTION":1.00272685,"ECCENTRICITY":0.0002435,"INCLINATION":0.0574,"RA_OF_ASC_NODE":294.0067,"ARG_OF_PERICENTER":54.9452,"MEAN_ANOMALY":122.3272,"EPHEMERIS_TYPE":0,"CLASSIFICATION_TYPE":"U","NORAD_CAT_ID":28446,"ELEMENT_SET_NO":999,"REV_AT_EPOCH":7824,"BSTAR":0,"MEAN_MOTION_DOT":-1.04e-6,"MEAN_MOTION_DDOT":0},{"OBJECT_NAME":"NSS-10","OBJECT_ID":"2005-003A","EPOCH":"2026-03-03T01:34:05.524608","MEAN_MOTION":1.00271521,"ECCENTRICITY":0.0003264,"INCLINATION":6.1843,"RA_OF_ASC_NODE":71.7369,"ARG_OF_PERICENTER":273.4397,"MEAN_ANOMALY":161.7221,"EPHEMERIS_TYPE":0,"CLASSIFICATION_TYPE":"U","NORAD_CAT_ID":28526,"ELEMENT_SET_NO":999,"REV_AT_EPOCH":5209,"BSTAR":0,"MEAN_MOTION_DOT":-2.65e-6,"MEAN_MOTION_DDOT":0},{"OBJECT_NAME":"ASTRA 1KR","OBJECT_ID":"2006-012A","EPOCH":"2026-03-03T01:15:38.681856","MEAN_MOTION":1.00271529,"ECCENTRICITY":0.0003462,"INCLINATION":0.2002,"RA_OF_ASC_NODE":81.7856,"ARG_OF_PERICENTER":242.3971,"MEAN_ANOMALY":234.5382,"EPHEMERIS_TYPE":0,"CLASSIFICATION_TYPE":"U","NORAD_CAT_ID":29055,"ELEMENT_SET_NO":999,"REV_AT_EPOCH":4463,"BSTAR":0,"MEAN_MOTION_DOT":1.03e-6,"MEAN_MOTION_DDOT":0},{"OBJECT_NAME":"ASTRA 1L","OBJECT_ID":"2007-016A","EPOCH":"2026-03-03T02:57:36.292608","MEAN_MOTION":1.00271355,"ECCENTRICITY":0.0003308,"INCLINATION":1.0475,"RA_OF_ASC_NODE":82.4316,"ARG_OF_PERICENTER":272.2669,"MEAN_ANOMALY":186.1361,"EPHEMERIS_TYPE":0,"CLASSIFICATION_TYPE":"U","NORAD_CAT_ID":31306,"ELEMENT_SET_NO":999,"REV_AT_EPOCH":4392,"BSTAR":0,"MEAN_MOTION_DOT":-1.99e-6,"MEAN_MOTION_DDOT":0},{"OBJECT_NAME":"ASTRA 4A","OBJECT_ID":"2007-057A","EPOCH":"2026-03-03T03:49:48.888768","MEAN_MOTION":1.00273258,"ECCENTRICITY":0.0002467,"INCLINATION":0.0555,"RA_OF_ASC_NODE":291.0983,"ARG_OF_PERICENTER":53.0063,"MEAN_ANOMALY":239.0754,"EPHEMERIS_TYPE":0,"CLASSIFICATION_TYPE":"U","NORAD_CAT_ID":32299,"ELEMENT_SET_NO":999,"REV_AT_EPOCH":5058,"BSTAR":0,"MEAN_MOTION_DOT":1.7e-7,"MEAN_MOTION_DDOT":0},{"OBJECT_NAME":"ASTRA 1M","OBJECT_ID":"2008-057A","EPOCH":"2026-03-03T01:15:38.681856","MEAN_MOTION":1.00273218,"ECCENTRICITY":6.33e-5,"INCLINATION":0.032,"RA_OF_ASC_NODE":58.5261,"ARG_OF_PERICENTER":12.7946,"MEAN_ANOMALY":127.5897,"EPHEMERIS_TYPE":0,"CLASSIFICATION_TYPE":"U","NORAD_CAT_ID":33436,"ELEMENT_SET_NO":999,"REV_AT_EPOCH":4467,"BSTAR":0,"MEAN_MOTION_DOT":1.04e-6,"MEAN_MOTION_DDOT":0},{"OBJECT_NAME":"NSS-9","OBJECT_ID":"2009-008A","EPOCH":"2026-03-03T00:43:38.659584","MEAN_MOTION":1.00272427,"ECCENTRICITY":0.0002192,"INCLINATION":0.9872,"RA_OF_ASC_NODE":83.7173,"ARG_OF_PERICENTER":250.18,"MEAN_ANOMALY":20.8642,"EPHEMERIS_TYPE":0,"CLASSIFICATION_TYPE":"U","NORAD_CAT_ID":33749,"ELEMENT_SET_NO":999,"REV_AT_EPOCH":6245,"BSTAR":0,"MEAN_MOTION_DOT":5.6e-7,"MEAN_MOTION_DDOT":0},{"OBJECT_NAME":"SES-7 (PROTOSTAR 2)","OBJECT_ID":"2009-027A","EPOCH":"2026-03-02T23:11:10.740192","MEAN_MOTION":1.00269046,"ECCENTRICITY":0.0001539,"INCLINATION":0.0235,"RA_OF_ASC_NODE":126.449,"ARG_OF_PERICENTER":180.5422,"MEAN_ANOMALY":309.8229,"EPHEMERIS_TYPE":0,"CLASSIFICATION_TYPE":"U","NORAD_CAT_ID":34941,"ELEMENT_SET_NO":999,"REV_AT_EPOCH":6156,"BSTAR":0,"MEAN_MOTION_DOT":0,"MEAN_MOTION_DDOT":0},{"OBJECT_NAME":"NSS-12","OBJECT_ID":"2009-058A","EPOCH":"2026-03-03T02:31:38.663040","MEAN_MOTION":1.00271953,"ECCENTRICITY":0.0005059,"INCLINATION":0.0082,"RA_OF_ASC_NODE":279.4528,"ARG_OF_PERICENTER":46.9426,"MEAN_ANOMALY":289.369,"EPHEMERIS_TYPE":0,"CLASSIFICATION_TYPE":"U","NORAD_CAT_ID":36032,"ELEMENT_SET_NO":999,"REV_AT_EPOCH":5985,"BSTAR":0,"MEAN_MOTION_DOT":5.6e-7,"MEAN_MOTION_DDOT":0},{"OBJECT_NAME":"SES-1","OBJECT_ID":"2010-016A","EPOCH":"2026-03-03T03:41:38.902272","MEAN_MOTION":1.00272384,"ECCENTRICITY":0.0002579,"INCLINATION":0.0552,"RA_OF_ASC_NODE":291,"ARG_OF_PERICENTER":40.9602,"MEAN_ANOMALY":143.3604,"EPHEMERIS_TYPE":0,"CLASSIFICATION_TYPE":"U","NORAD_CAT_ID":36516,"ELEMENT_SET_NO":999,"REV_AT_EPOCH":5797,"BSTAR":0,"MEAN_MOTION_DOT":-1.3e-6,"MEAN_MOTION_DDOT":0},{"OBJECT_NAME":"ASTRA 3B","OBJECT_ID":"2010-021A","EPOCH":"2026-03-03T02:12:28.217664","MEAN_MOTION":1.00271092,"ECCENTRICITY":0.0003036,"INCLINATION":1.1939,"RA_OF_ASC_NODE":84.954,"ARG_OF_PERICENTER":277.9441,"MEAN_ANOMALY":214.568,"EPHEMERIS_TYPE":0,"CLASSIFICATION_TYPE":"U","NORAD_CAT_ID":36581,"ELEMENT_SET_NO":999,"REV_AT_EPOCH":5780,"BSTAR":0,"MEAN_MOTION_DOT":1.22e-6,"MEAN_MOTION_DDOT":0},{"OBJECT_NAME":"SES-3","OBJECT_ID":"2011-035A","EPOCH":"2026-03-03T03:41:38.902272","MEAN_MOTION":1.00272138,"ECCENTRICITY":0.0003578,"INCLINATION":1.0526,"RA_OF_ASC_NODE":84.321,"ARG_OF_PERICENTER":261.0698,"MEAN_ANOMALY":127.926,"EPHEMERIS_TYPE":0,"CLASSIFICATION_TYPE":"U","NORAD_CAT_ID":37748,"ELEMENT_SET_NO":999,"REV_AT_EPOCH":5353,"BSTAR":0,"MEAN_MOTION_DOT":-1.17e-6,"MEAN_MOTION_DDOT":0},{"OBJECT_NAME":"ASTRA 1N","OBJECT_ID":"2011-041A","EPOCH":"2026-03-02T17:59:06.144288","MEAN_MOTION":1.00273017,"ECCENTRICITY":0.00040625,"INCLINATION":0.0673,"RA_OF_ASC_NODE":16.6824,"ARG_OF_PERICENTER":0.7096,"MEAN_ANOMALY":72.0856,"EPHEMERIS_TYPE":0,"CLASSIFICATION_TYPE":"U","NORAD_CAT_ID":37775,"ELEMENT_SET_NO":999,"REV_AT_EPOCH":4346,"BSTAR":0,"MEAN_MOTION_DOT":1.03e-6,"MEAN_MOTION_DDOT":0}]
